{
  "type": "FeatureCollection",
  "features": [
    {
      "type": "Feature",
      "properties": {
        "norad_id": 37484,
        "name": "COSMOS 2251 DEB",
        "group": "cosmos-2251-debris",
        "lat": -12.835838857107376,
        "lon": -146.34845278318198,
        "alt_km": 758.6093296130275,
        "timestamp": "2025-12-07T22:37:43.479845+00:00",
        "meta_object_name": "COSMOS 2251 DEB",
        "meta_object_id": "1993-036BLM",
        "meta_epoch": "2025-12-06T08:56:33.254304",
        "meta_mean_motion": 14.41742642,
        "meta_eccentricity": 0.00400909,
        "meta_inclination": 73.8227,
        "meta_ra_of_asc_node": 220.3904,
        "meta_arg_of_pericenter": 256.1563,
        "meta_mean_anomaly": 223.2643,
        "meta_ephemeris_type": 0,
        "meta_classification_type": "U",
        "meta_norad_cat_id": 37484,
        "meta_element_set_no": 999,
        "meta_rev_at_epoch": 65287,
        "meta_bstar": 0.0013292575,
        "meta_mean_motion_dot": 4.354e-05,
        "meta_mean_motion_ddot": 0,
        "tle_line1": "1 37484U 93036BLM 25340.37260711  .00004354  00000+0  13293-2 0  9993",
        "tle_line2": "2 37484  73.8227 220.3904 0040090 256.1563 223.2643 14.41742642652873"
      },
      "geometry": {
        "type": "Point",
        "coordinates": [
          -146.34845278318198,
          -12.835838857107376
        ]
      }
    },
    {
      "type": "Feature",
      "properties": {
        "norad_id": 37486,
        "name": "COSMOS 2251 DEB",
        "group": "cosmos-2251-debris",
        "lat": 16.85364022098915,
        "lon": 128.36012014184323,
        "alt_km": 698.2520565303321,
        "timestamp": "2025-12-07T22:37:43.479855+00:00",
        "meta_object_name": "COSMOS 2251 DEB",
        "meta_object_id": "1993-036BLP",
        "meta_epoch": "2025-12-07T02:42:27.056160",
        "meta_mean_motion": 14.1325012,
        "meta_eccentricity": 0.02291574,
        "meta_inclination": 73.6904,
        "meta_ra_of_asc_node": 124.7715,
        "meta_arg_of_pericenter": 353.7745,
        "meta_mean_anomaly": 121.3537,
        "meta_ephemeris_type": 0,
        "meta_classification_type": "U",
        "meta_norad_cat_id": 37486,
        "meta_element_set_no": 999,
        "meta_rev_at_epoch": 63290,
        "meta_bstar": 0.0027844399,
        "meta_mean_motion_dot": 6.678e-05,
        "meta_mean_motion_ddot": 0,
        "tle_line1": "1 37486U 93036BLP 25341.11281315  .00006678  00000+0  27844-2 0  9999",
        "tle_line2": "2 37486  73.6904 124.7715 0229157 353.7745 121.3537 14.13250120632907"
      },
      "geometry": {
        "type": "Point",
        "coordinates": [
          128.36012014184323,
          16.85364022098915
        ]
      }
    },
    {
      "type": "Feature",
      "properties": {
        "norad_id": 37487,
        "name": "COSMOS 2251 DEB",
        "group": "cosmos-2251-debris",
        "lat": 22.94917477839454,
        "lon": -151.35002053774085,
        "alt_km": 609.3206627497475,
        "timestamp": "2025-12-07T22:37:43.479866+00:00",
        "meta_object_name": "COSMOS 2251 DEB",
        "meta_object_id": "1993-036BLQ",
        "meta_epoch": "2025-12-06T07:36:14.773824",
        "meta_mean_motion": 14.80609361,
        "meta_eccentricity": 0.00252454,
        "meta_inclination": 73.9019,
        "meta_ra_of_asc_node": 204.8571,
        "meta_arg_of_pericenter": 44.15,
        "meta_mean_anomaly": 316.1684,
        "meta_ephemeris_type": 0,
        "meta_classification_type": "U",
        "meta_norad_cat_id": 37487,
        "meta_element_set_no": 999,
        "meta_rev_at_epoch": 81150,
        "meta_bstar": 0.0050036629,
        "meta_mean_motion_dot": 0.00038806,
        "meta_mean_motion_ddot": 0,
        "tle_line1": "1 37487U 93036BLQ 25340.31683766  .00038806  00000+0  50037-2 0  9995",
        "tle_line2": "2 37487  73.9019 204.8571 0025245  44.1500 316.1684 14.80609361811501"
      },
      "geometry": {
        "type": "Point",
        "coordinates": [
          -151.35002053774085,
          22.94917477839454
        ]
      }
    },
    {
      "type": "Feature",
      "properties": {
        "norad_id": 37491,
        "name": "COSMOS 2251 DEB",
        "group": "cosmos-2251-debris",
        "lat": 17.24127542550594,
        "lon": 96.99725853156778,
        "alt_km": 1070.0252050765139,
        "timestamp": "2025-12-07T22:37:43.479876+00:00",
        "meta_object_name": "COSMOS 2251 DEB",
        "meta_object_id": "1993-036BLU",
        "meta_epoch": "2025-12-03T14:48:31.500000",
        "meta_mean_motion": 13.75236476,
        "meta_eccentricity": 0.03180692,
        "meta_inclination": 73.9058,
        "meta_ra_of_asc_node": 289.3863,
        "meta_arg_of_pericenter": 284.0782,
        "meta_mean_anomaly": 72.518,
        "meta_ephemeris_type": 0,
        "meta_classification_type": "U",
        "meta_norad_cat_id": 37491,
        "meta_element_set_no": 999,
        "meta_rev_at_epoch": 55621,
        "meta_bstar": 0.0021635807,
        "meta_mean_motion_dot": 2.973e-05,
        "meta_mean_motion_ddot": 0,
        "tle_line1": "1 37491U 93036BLU 25337.61703125  .00002973  00000+0  21636-2 0  9990",
        "tle_line2": "2 37491  73.9058 289.3863 0318069 284.0782  72.5180 13.75236476556211"
      },
      "geometry": {
        "type": "Point",
        "coordinates": [
          96.99725853156778,
          17.24127542550594
        ]
      }
    },
    {
      "type": "Feature",
      "properties": {
        "norad_id": 37498,
        "name": "COSMOS 2251 DEB",
        "group": "cosmos-2251-debris",
        "lat": -70.3789753950957,
        "lon": 139.5641827366051,
        "alt_km": 708.8378231992874,
        "timestamp": "2025-12-07T22:37:43.479887+00:00",
        "meta_object_name": "COSMOS 2251 DEB",
        "meta_object_id": "1993-036BMB",
        "meta_epoch": "2025-12-02T07:38:53.705760",
        "meta_mean_motion": 14.54689112,
        "meta_eccentricity": 0.00134342,
        "meta_inclination": 74.038,
        "meta_ra_of_asc_node": 203.6034,
        "meta_arg_of_pericenter": 264.7495,
        "meta_mean_anomaly": 95.2135,
        "meta_ephemeris_type": 0,
        "meta_classification_type": "U",
        "meta_norad_cat_id": 37498,
        "meta_element_set_no": 999,
        "meta_rev_at_epoch": 65203,
        "meta_bstar": 0.00080152077,
        "meta_mean_motion_dot": 3.406e-05,
        "meta_mean_motion_ddot": 0,
        "tle_line1": "1 37498U 93036BMB 25336.31867715  .00003406  00000+0  80152-3 0  9990",
        "tle_line2": "2 37498  74.0380 203.6034 0013434 264.7495  95.2135 14.54689112652037"
      },
      "geometry": {
        "type": "Point",
        "coordinates": [
          139.5641827366051,
          -70.3789753950957
        ]
      }
    },
    {
      "type": "Feature",
      "properties": {
        "norad_id": 37499,
        "name": "COSMOS 2251 DEB",
        "group": "cosmos-2251-debris",
        "lat": 50.738126322442895,
        "lon": 130.47672723677428,
        "alt_km": 768.1292171420637,
        "timestamp": "2025-12-07T22:37:43.479897+00:00",
        "meta_object_name": "COSMOS 2251 DEB",
        "meta_object_id": "1993-036BMC",
        "meta_epoch": "2025-12-05T06:26:07.747872",
        "meta_mean_motion": 14.34331053,
        "meta_eccentricity": 0.00266878,
        "meta_inclination": 74.0375,
        "meta_ra_of_asc_node": 335.869,
        "meta_arg_of_pericenter": 54.1527,
        "meta_mean_anomaly": 306.2098,
        "meta_ephemeris_type": 0,
        "meta_classification_type": "U",
        "meta_norad_cat_id": 37499,
        "meta_element_set_no": 999,
        "meta_rev_at_epoch": 85042,
        "meta_bstar": 0.00027954752,
        "meta_mean_motion_dot": 7.63e-06,
        "meta_mean_motion_ddot": 0,
        "tle_line1": "1 37499U 93036BMC 25339.26814523  .00000763  00000+0  27955-3 0  9992",
        "tle_line2": "2 37499  74.0375 335.8690 0026687  54.1527 306.2098 14.34331053850421"
      },
      "geometry": {
        "type": "Point",
        "coordinates": [
          130.47672723677428,
          50.738126322442895
        ]
      }
    },
    {
      "type": "Feature",
      "properties": {
        "norad_id": 37528,
        "name": "COSMOS 2251 DEB",
        "group": "cosmos-2251-debris",
        "lat": 2.685820738690685,
        "lon": 131.9203238226253,
        "alt_km": 724.5715896026195,
        "timestamp": "2025-12-07T22:37:43.479908+00:00",
        "meta_object_name": "COSMOS 2251 DEB",
        "meta_object_id": "1993-036BNH",
        "meta_epoch": "2025-12-06T16:49:14.647872",
        "meta_mean_motion": 14.5048578,
        "meta_eccentricity": 0.00209458,
        "meta_inclination": 74.0353,
        "meta_ra_of_asc_node": 133.4841,
        "meta_arg_of_pericenter": 282.1287,
        "meta_mean_anomaly": 77.7527,
        "meta_ephemeris_type": 0,
        "meta_classification_type": "U",
        "meta_norad_cat_id": 37528,
        "meta_element_set_no": 999,
        "meta_rev_at_epoch": 85843,
        "meta_bstar": 0.00085302244,
        "meta_mean_motion_dot": 3.32e-05,
        "meta_mean_motion_ddot": 0,
        "tle_line1": "1 37528U 93036BNH 25340.70086398  .00003320  00000+0  85302-3 0  9999",
        "tle_line2": "2 37528  74.0353 133.4841 0020945 282.1287  77.7527 14.50485780858438"
      },
      "geometry": {
        "type": "Point",
        "coordinates": [
          131.9203238226253,
          2.685820738690685
        ]
      }
    }
  ]
}